ONEWEB-0202             
1 48224U 21031Q   21167.16667824 -.00990093  00000-0 -20145+0 0  9997
2 48224  87.5938 296.0090 0013174  87.1392 138.9530 14.64068267  7767
ONEWEB-0204             
1 48225U 21031R   21167.16667824 -.00910343  00000-0 -21524+0 0  9990
2 48225  87.5497 296.0182 0009272  85.4095  60.4585 14.57048299  7747
ONEWEB-0205             
1 48226U 21031S   21166.91667824 -.00923553  00000-0 -24005+0 0  9997
2 48226  87.5260 296.1095 0013892  89.7366 213.0458 14.52645303  1788
ONEWEB-0206             
1 48227U 21031T   21166.91667824 -.00936406  00000-0 -26898+0 0  9991
2 48227  87.5028 296.1088 0010707  94.2766 318.9007 14.48001649  1734
ONEWEB-0182             
1 48228U 21031U   21167.16667824 -.00866703  00000-0 -13202+0 0  9997
2 48228  87.6311 295.9200 0010188  95.0788 171.1720 14.76816362  7778
ONEWEB-0186             
1 48229U 21031V   21167.16667824 -.00915568  00000-0 -16852+0 0  9996
2 48229  87.6138 295.9558 0010024  75.5481 325.6149 14.68803411  7766
ONEWEB-0181             
1 48230U 21031W   21167.16667824 -.00878065  00000-0 -23763+0 0  9997
2 48230  87.5481 296.0757 0012422  94.3487 203.7375 14.50620709  7710
ONEWEB-0188             
1 48231U 21031X   21167.16667824 -.00787858  00000-0 -24533+0 0  9993
2 48231  87.4581 295.9823 0009762  82.2941  61.8002 14.44056122  7688
ONEWEB-0220             
1 48232U 21031Y   21167.16667824 -.00971648  00000-0 -18488+0 0  9998
2 48232  87.6016 295.9871 0013581  75.5785 331.4691 14.66993238  7763
ONEWEB-0165             
1 48233U 21031Z   21167.16667824 -.00981450  00000-0 -19765+0 0  9990
2 48233  87.5953 296.0164 0012669  88.1813 110.5365 14.64508546  7753
ONEWEB-0199             
1 48234U 21031AA  21167.16667824 -.00960054  00000-0 -23108+0 0  9994
2 48234  87.5400 296.0005 0009244  78.9562 278.8291 14.56379807  7739
ONEWEB-0203             
1 48235U 21031AB  21167.16667824 -.00819615  00000-0 -22572+0 0  9995
2 48235  87.5129 296.0343 0013250  88.3969 333.2847 14.50062291  7712
ONEWEB-0197             
1 48236U 21031AC  21167.16667824 -.00958307  00000-0 -27979+0 0  9994
2 48236  87.4858 296.0167 0010727 100.2282 218.0037 14.47296432  7705
ONEWEB-0194             
1 48237U 21031AD  21167.16667824 -.00980705  00000-0 -20198+0 0  9998
2 48237  87.5906 296.0129 0010198  92.8210 288.0281 14.63528703  7758
ONEWEB-0193             
1 48238U 21031AE  21166.91667824 -.00963531  00000-0 -23051+0 0  9990
2 48238  87.5474 296.0925 0010750  77.0491 295.7301 14.56656691  1744
ONEWEB-0191             
1 48239U 21031AF  21167.16667824 -.00993460  00000-0 -29160+0 0  9990
2 48239  87.4773 296.0106 0011373  96.0005 243.5999 14.47150626  7692
ONEWEB-0195             
1 48240U 21031AG  21166.91667824 -.00967528  00000-0 -29918+0 0  9991
2 48240  87.4584 296.0873 0009443  81.1008 300.6590 14.44535415  1773
ONEWEB-0201             
1 48241U 21031AH  21166.91667824 -.00914304  00000-0 -16543+0 0  9996
2 48241  87.6167 296.0814 0013404  75.1523 263.8643 14.69510556  1792
ONEWEB-0207             
1 48242U 21031AJ  21167.16667824 -.00986981  00000-0 -20779+0 0  9991
2 48242  87.5824 296.0121 0011920  91.3323 277.2932 14.62540524  7744
ONEWEB-0208             
1 48243U 21031AK  21167.16667824 -.00986427  00000-0 -20833+0 0  9998
2 48243  87.5821 295.9915 0009914  84.4272 111.0199 14.62417824  7732
ONEWEB-0200             
1 48244U 21031AL  21167.16667824 -.00785443  00000-0 -20617+0 0  9994
2 48244  87.5261 296.0294 0013448  84.8391 207.7490 14.52191432  7714
ONEWEB-0217             
1 48245U 21031AM  21166.91667824 -.00986750  00000-0 -28555+0 0  9990
2 48245  87.4805 296.1103 0010379  97.9264 327.7933 14.47815380  1732
PLEIADES NEO 3          
1 48268U 21034A   21167.22976144  .00000106  00000-0  20049-4 0  9996
2 48268  97.8938 242.2177 0001549  93.6337 266.5046 14.81676114  7127
LEMUR-2-AMANDA-SVANTE   
1 48269U 21034B   21166.75941588  .00000678  00000-0  84093-4 0  9991
2 48269  97.7860 241.3981 0003585 173.8203 186.3058 14.85783148  7064
AII-BRAVO               
1 48270U 21034C   21166.76173786  .00000285  00000-0  38993-4 0  9993
2 48270  97.7856 241.3924 0003912 172.1874 187.9403 14.85688383  7075
TYVAK-182A              
1 48271U 21034D   21167.15298732  .00000372  00000-0  48477-4 0  9992
2 48271  97.7857 241.8060 0000910 197.4448 162.6737 14.86094069  7124
NORSAT 3                
1 48272U 21034E   21167.20707154  .00000422  00000-0  53682-4 0  9992
2 48272  97.7863 241.8871 0001188  47.3437 312.7878 14.86498941  7144
LEMUR-2-SPECIAL-K       
1 48273U 21034F   21167.16339382  .00000739  00000-0  91122-4 0  9994
2 48273  97.7858 241.7926 0003631 171.0081 189.1200 14.85786911  7134
TIANHE                  
1 48274U 21035A   21167.11176508  .00003763  00000-0  45007-4 0  9991
2 48274  41.4707 289.6789 0008959 293.0084 240.8494 15.62393447  7525
STARLINK-2567           
1 48276U 21036A   21166.91667824 -.00087936  00000-0 -62691-3 0  9990
2 48276  53.0521 291.6454 0001443  45.0853   7.1580 15.73261454  1834
STARLINK-2569           
1 48277U 21036B   21167.16667824  .00037295  00000-0  27039-3 0  9997
2 48277  53.0521 290.4010 0001273  68.0005 321.5847 15.73071939  8322
STARLINK-2543           
1 48278U 21036C   21167.16667824  .00045502  00000-0  32881-3 0  9999
2 48278  53.0521 290.3986 0001316  58.5497 331.6885 15.73057006  8324
STARLINK-2580           
1 48279U 21036D   21167.16667824 -.00363093  00000-0 -26885-2 0  9996
2 48279  53.0520 290.3973 0001025  71.1728 319.6804 15.73260784  8321
STARLINK-2565           
1 48280U 21036E   21166.91667824 -.01074202  00000-0 -35717-1 0  9995
2 48280  53.0503 294.0027 0001227  91.5365 183.4677 15.33456143  1861
STARLINK-2520           
1 48281U 21036F   21167.16667824 -.00250836  00000-0 -18354-2 0  9991
2 48281  53.0520 290.3942 0001188  63.7726 328.3479 15.73211224  8325
STARLINK-2558           
1 48282U 21036G   21167.16667824  .00111522  00000-0  79514-3 0  9994
2 48282  53.0522 290.3937 0001147  68.5646 324.2614 15.72999730  8321
STARLINK-2516           
1 48283U 21036H   21167.16667824 -.00266117  00000-0 -19477-2 0  9999
2 48283  53.0518 290.3907 0001005  68.1866 325.1545 15.73251204  8328
STARLINK-2564           
1 48284U 21036J   21167.16667824  .00034158  00000-0  24809-3 0  9992
2 48284  53.0520 290.3901 0001124  73.8259 320.2090 15.73074187  8321
STARLINK-2548           
1 48285U 21036K   21167.16667824  .00479789  00000-0  32795-2 0  9998
2 48285  53.0532 290.3893 0001505  50.5032 344.2341 15.72848965  8326
STARLINK-2547           
1 48286U 21036L   21167.16667824  .00000781  00000-0  10027-4 0  9997
2 48286  53.0520 290.3874 0001084  73.6138 321.7285 15.73064460  8326
STARLINK-2566           
1 48287U 21036M   21167.16667824 -.00276362  00000-0 -20284-2 0  9994
2 48287  53.0517 290.3842 0001089  63.0475 332.9001 15.73215328  8321
STARLINK-2562           
1 48288U 21036N   21167.16667824 -.00249091  00000-0 -18209-2 0  9998
2 48288  53.0520 290.3850 0001091  52.5073 344.0361 15.73228463  8322
STARLINK-2545           
1 48289U 21036P   21167.16667824 -.00315320  00000-0 -23247-2 0  9996
2 48289  53.0520 290.3835 0000981  60.8880 336.3442 15.73224878  8321
STARLINK-2540           
1 48290U 21036Q   21167.16667824 -.00194161  00000-0 -14085-2 0  9996
2 48290  53.0521 290.3824 0001234  53.6982 344.0602 15.73239468  8322
STARLINK-2555           
1 48291U 21036R   21167.16667824 -.00291492  00000-0 -21456-2 0  9992
2 48291  53.0522 290.3820 0001055  62.9380 335.5991 15.73192759  8323
STARLINK-2542           
1 48292U 21036S   21167.16667824 -.00359461  00000-0 -26585-2 0  9992
2 48292  53.0518 290.3785 0001225  68.5311 330.5611 15.73276679  8322
STARLINK-2550           
1 48293U 21036T   21167.16667824 -.00334337  00000-0 -24702-2 0  9997
2 48293  53.0520 290.3784 0001021  64.9017 334.8807 15.73229359  8329
STARLINK-2533           
1 48294U 21036U   21167.16667824  .00110770  00000-0  79014-3 0  9996
2 48294  53.0520 290.3768 0001182  64.7063 335.7619 15.72992016  8326
STARLINK-2535           
1 48295U 21036V   21167.16667824  .00163833  00000-0  11595-2 0  9994
2 48295  53.0526 290.3766 0001389  50.5870 350.4936 15.72985052  8327
STARLINK-2546           
1 48296U 21036W   21167.16667824 -.00125421  00000-0 -90298-3 0  9996
2 48296  53.0522 290.3748 0001084  46.6262 354.9810 15.73186281  8325
STARLINK-2544           
1 48297U 21036X   21167.16667824 -.00214778  00000-0 -15678-2 0  9999
2 48297  53.0522 290.3741 0001212  65.3203 337.0298 15.73158325  8325
STARLINK-2559           
1 48298U 21036Y   21167.16667824 -.00001287  00000-0 -47453-5 0  9998
2 48298  53.0529 290.3701 0001177  67.6602 335.0900 15.73213989  8323
STARLINK-2557           
1 48299U 21036Z   21166.91667824  .00013018  00000-0  96992-4 0  9995
2 48299  53.0525 291.6157 0001274  52.1952  14.6351 15.73205742  1831
STARLINK-2538           
1 48300U 21036AA  21166.91667824 -.01095119  00000-0 -15867-1 0  9992
2 48300  53.0526 291.9751 0001183  92.2281 157.7746 15.57925642  1823
STARLINK-2537           
1 48301U 21036AB  21166.91667824 -.01092511  00000-0 -16857-1 0  9996
2 48301  53.0518 291.9935 0001237  89.5801 120.0242 15.56247598  1826
STARLINK-2556           
1 48302U 21036AC  21166.91667824 -.01092567  00000-0 -16735-1 0  9993
2 48302  53.0523 291.9827 0001241  93.1523 121.7992 15.56443180  1825
STARLINK-2530           
1 48303U 21036AD  21166.91667824 -.01092804  00000-0 -16621-1 0  9992
2 48303  53.0523 291.9677 0001254  75.4040 145.0714 15.56631814  1824
STARLINK-2524           
1 48304U 21036AE  21166.91667824 -.01093049  00000-0 -16505-1 0  9996
2 48304  53.0522 291.9645 0001235  77.6658 148.1372 15.56825114  1829
STARLINK-2519           
1 48305U 21036AF  21166.91667824 -.01093507  00000-0 -16393-1 0  9991
2 48305  53.0522 291.9584 0001202  84.6509 146.4412 15.57018764  1821
